$$SOE
2461295.500000000, A.D. 2026-Sep-12 00:00:00.0000, 6.016172503148858E+07, 3.728382289133322E+08, -7.795951549317376E+07,
2461302.500000000, A.D. 2026-Sep-19 00:00:00.0000, 4.841939335512791E+07, 3.733334229440628E+08, -7.831188317096274E+07,
2461309.500000000, A.D. 2026-Sep-26 00:00:00.0000, 3.663565774764866E+07, 3.735098649899130E+08, -7.859737112306836E+07,
2461316.500000000, A.D. 2026-Oct-03 00:00:00.0000, 2.482031140925044E+07, 3.733647139504499E+08, -7.881516892523831E+07,
2461323.500000000, A.D. 2026-Oct-10 00:00:00.0000, 1.298334811414089E+07, 3.728954518218004E+08, -7.896453065253057E+07,
2461330.500000000, A.D. 2026-Oct-17 00:00:00.0000, 1.134949839000035E+06, 3.720998978280568E+08, -7.904477812131101E+07,
2461337.500000000, A.D. 2026-Oct-24 00:00:00.0000, -1.071452672803158E+07, 3.709762220094237E+08, -7.905530406709127E+07,
2461344.500000000, A.D. 2026-Oct-31 00:00:00.0000, -2.255456469153395E+07, 3.695229581098176E+08, -7.899557525324576E+07,
2461351.500000000, A.D. 2026-Nov-07 00:00:00.0000, -3.437450211161879E+07, 3.677390157460857E+08, -7.886513551582478E+07,
2461358.500000000, A.D. 2026-Nov-14 00:00:00.0000, -4.616354760051678E+07, 3.656236926550553E+08, -7.866360867097232E+07,
2461365.500000000, A.D. 2026-Nov-21 00:00:00.0000, -5.791079812917072E+07, 3.631766876105404E+08, -7.839070104443184E+07,
2461372.500000000, A.D. 2026-Nov-28 00:00:00.0000, -6.960525999383943E+07, 3.603981109078594E+08, -7.804620375615239E+07,
2461379.500000000, A.D. 2026-Dec-05 00:00:00.0000, -8.123586927063271E+07, 3.572884916645998E+08, -7.762999512272355E+07,
2461386.500000000, A.D. 2026-Dec-12 00:00:00.0000, -9.279151153076984E+07, 3.538487849634967E+08, -7.714204291924581E+07,
2461393.500000000, A.D. 2026-Dec-19 00:00:00.0000, -1.042610426279087E+08, 3.500803787589147E+08, -7.658240630651537E+07,
2461400.500000000, A.D. 2026-Dec-26 00:00:00.0000, -1.156333106185291E+08, 3.459850995952496E+08, -7.595123745994805E+07,
2461407.500000000, A.D. 2027-Jan-02 00:00:00.0000, -1.268971784528086E+08, 3.415652168718612E+08, -7.524878292268699E+07,
2461414.500000000, A.D. 2027-Jan-09 00:00:00.0000, -1.380415472236898E+08, 3.368234456110768E+08, -7.447538467699766E+07,
2461421.500000000, A.D. 2027-Jan-16 00:00:00.0000, -1.490553798335924E+08, 3.317629476835803E+08, -7.363148092352498E+07,
2461428.500000000, A.D. 2027-Jan-23 00:00:00.0000, -1.599277249191372E+08, 3.263873314044905E+08, -7.271760656374379E+07,
2461435.500000000, A.D. 2027-Jan-30 00:00:00.0000, -1.706477407269757E+08, 3.207006494128861E+08, -7.173439339550430E+07,
2461442.500000000, A.D. 2027-Feb-06 00:00:00.0000, -1.812047183935137E+08, 3.147073951449181E+08, -7.068257002362314E+07,
2461449.500000000, A.D. 2027-Feb-13 00:00:00.0000, -1.915881049651079E+08, 3.084124991029871E+08, -6.956296133793402E+07,
2461456.500000000, A.D. 2027-Feb-20 00:00:00.0000, -2.017875283956690E+08, 3.018213241286107E+08, -6.837648740519355E+07,
2461463.500000000, A.D. 2027-Feb-27 00:00:00.0000, -2.117928229915891E+08, 2.949396564739074E+08, -6.712416216451868E+07,
2461470.500000000, A.D. 2027-Mar-06 00:00:00.0000, -2.215940521541155E+08, 2.877736946097118E+08, -6.580709204560980E+07,
2461477.500000000, A.D. 2027-Mar-13 00:00:00.0000, -2.311815298941004E+08, 2.803300378540481E+08, -6.442647420143774E+07,
2461484.500000000, A.D. 2027-Mar-20 00:00:00.0000, -2.405458421213559E+08, 2.726156740353068E+08, -6.298359432848235E+07,
2461491.500000000, A.D. 2027-Mar-27 00:00:00.0000, -2.496778673817548E+08, 2.646379656982404E+08, -6.147982414678483E+07,
2461498.500000000, A.D. 2027-Apr-03 00:00:00.0000, -2.585687967213178E+08, 2.564046348724227E+08, -5.991661857352751E+07,
2461505.500000000, A.D. 2027-Apr-10 00:00:00.0000, -2.672101525059013E+08, 2.479237465048811E+08, -5.829551260784981E+07,
2461512.500000000, A.D. 2027-Apr-17 00:00:00.0000, -2.755938060726025E+08, 2.392036906316572E+08, -5.661811794654850E+07,
2461519.500000000, A.D. 2027-Apr-24 00:00:00.0000, -2.837119940410631E+08, 2.302531633245004E+08, -5.488611936164508E+07,
2461526.500000000, A.D. 2027-May-01 00:00:00.0000, -2.915573329024616E+08, 2.210811465468929E+08, -5.310127088555538E+07,
2461533.500000000, A.D. 2027-May-08 00:00:00.0000, -2.991228315072887E+08, 2.116968877807045E+08, -5.126539179309876E+07,
2461540.500000000, A.D. 2027-May-15 00:00:00.0000, -3.064019028905693E+08, 2.021098804956576E+08, -4.938036218935864E+07,
2461547.500000000, A.D. 2027-May-22 00:00:00.0000, -3.133883769537201E+08, 1.923298429960471E+08, -4.744811829818064E+07,
2461554.500000000, A.D. 2027-May-29 00:00:00.0000, -3.200765106093951E+08, 1.823666943057870E+08, -4.547064790472617E+07,
2461561.500000000, A.D. 2027-Jun-05 00:00:00.0000, -3.264609944773892E+08, 1.722305303479637E+08, -4.344998580174263E+07,
2461568.500000000, A.D. 2027-Jun-12 00:00:00.0000, -3.325369581319526E+08, 1.619316009763858E+08, -4.138820904755394E+07,
2461575.500000000, A.D. 2027-Jun-19 00:00:00.0000, -3.382999742368762E+08, 1.514802870536397E+08, -3.928743211017697E+07,
2461582.500000000, A.D. 2027-Jun-26 00:00:00.0000, -3.437460613027964E+08, 1.408870774406880E+08, -3.714980197134465E+07,
2461589.500000000, A.D. 2027-Jul-03 00:00:00.0000, -3.488716849594688E+08, 1.301625460273046E+08, -3.497749322774366E+07,
2461596.500000000, A.D. 2027-Jul-10 00:00:00.0000, -3.536737577424504E+08, 1.193173289279315E+08, -3.277270321740464E+07,
2461603.500000000, A.D. 2027-Jul-17 00:00:00.0000, -3.581496374045197E+08, 1.083621019142566E+08, -3.053764720216491E+07,
2461610.500000000, A.D. 2027-Jul-24 00:00:00.0000, -3.622971236513837E+08, 9.730755812523055E+07, -2.827455364893975E+07,
2461617.500000000, A.D. 2027-Jul-31 00:00:00.0000, -3.661144529543660E+08, 8.616438638604154E+07, -2.598565965014761E+07,
2461624.500000000, A.D. 2027-Aug-07 00:00:00.0000, -3.696002917121803E+08, 7.494325137528615E+07, -2.367320639111561E+07,
2461631.500000000, A.D. 2027-Aug-14 00:00:00.0000, -3.727537301423203E+08, 6.365477546572768E+07, -2.133943449322533E+07,
2461638.500000000, A.D. 2027-Aug-21 00:00:00.0000, -3.755742763709399E+08, 5.230951894683333E+07, -1.898657958214875E+07,
2461645.500000000, A.D. 2027-Aug-28 00:00:00.0000, -3.780618473763194E+08, 4.091795989872733E+07, -1.661686831210880E+07,
2461652.500000000, A.D. 2027-Sep-04 00:00:00.0000, -3.802167580491087E+08, 2.949047627385456E+07, -1.423251454483252E+07,
2461659.500000000, A.D. 2027-Sep-11 00:00:00.0000, -3.820397098506785E+08, 1.803732956560710E+07, -1.183571561986909E+07,
2461666.500000000, A.D. 2027-Sep-18 00:00:00.0000, -3.835317790270132E+08, 6.568649445048515E+06, -9.428648791338906E+06,
2461673.500000000, A.D. 2027-Sep-25 00:00:00.0000, -3.846944042416900E+08, -4.905580689589008E+06, -7.013467866670953E+06,
2461680.500000000, A.D. 2027-Oct-02 00:00:00.0000, -3.855293736474643E+08, -1.637553720883659E+07, -4.592300058760110E+06,
2461687.500000000, A.D. 2027-Oct-09 00:00:00.0000, -3.860388114690033E+08, -2.783156878918257E+07, -2.167243058987908E+06,
2461694.500000000, A.D. 2027-Oct-16 00:00:00.0000, -3.862251641252891E+08, -3.926420804283265E+07, 2.596376558512803E+05,
2461701.500000000, A.D. 2027-Oct-23 00:00:00.0000, -3.860911857179222E+08, -5.066418224846720E+07, 2.686311257835859E+06,
2461708.500000000, A.D. 2027-Oct-30 00:00:00.0000, -3.856399225908614E+08, -6.202242258254200E+07, 5.110783760094084E+06,
2461715.500000000, A.D. 2027-Nov-06 00:00:00.0000, -3.848746982000771E+08, -7.333007074015075E+07, 7.531100168205678E+06,
2461722.500000000, A.D. 2027-Nov-13 00:00:00.0000, -3.837991003507491E+08, -8.457848504587923E+07, 9.945346606589429E+06,
2461729.500000000, A.D. 2027-Nov-20 00:00:00.0000, -3.824169679709531E+08, -9.575924826904914E+07, 1.235165197956754E+07,
2461736.500000000, A.D. 2027-Nov-27 00:00:00.0000, -3.807323758685525E+08, -1.068641742087912E+08, 1.474818926688173E+07,
2461743.500000000, A.D. 2027-Dec-04 00:00:00.0000, -3.787496195502949E+08, -1.178853121686803E+08, 1.713317672050298E+07,
2461750.500000000, A.D. 2027-Dec-11 00:00:00.0000, -3.764732007052228E+08, -1.288149503241252E+08, 1.950487894122371E+07,
2461757.500000000, A.D. 2027-Dec-18 00:00:00.0000, -3.739078131271994E+08, -1.396456183634613E+08, 2.186160778947300E+07,
2461764.500000000, A.D. 2027-Dec-25 00:00:00.0000, -3.710583289699883E+08, -1.503700894470104E+08, 2.420172312440006E+07,
2461771.500000000, A.D. 2028-Jan-01 00:00:00.0000, -3.679297853328804E+08, -1.609813815121747E+08, 2.652363337727918E+07,
$$EOE